OBJECT_NAME,OBJECT_ID,EPOCH,MEAN_MOTION,ECCENTRICITY,INCLINATION,RA_OF_ASC_NODE,ARG_OF_PERICENTER,MEAN_ANOMALY,EPHEMERIS_TYPE,CLASSIFICATION_TYPE,NORAD_CAT_ID,ELEMENT_SET_NO,REV_AT_EPOCH,BSTAR,MEAN_MOTION_DOT,MEAN_MOTION_DDOT
ONEWEB-0309,2021-075W,2026-07-16T22:21:59.306688,13.17650451,.00023769,87.9147,359.9454,92.1743,267.9661,0,U,49095,999,23749,-.20916854E-4,.5E-7,0
ONEWEB-0310,2021-075X,2026-07-16T23:14:04.037856,13.12442638,.00018734,87.8966,344.7574,97.1285,263.0056,0,U,49096,999,23909,-.89989216E-3,-.311E-5,0
ONEWEB-0311,2021-075Y,2026-07-16T22:31:43.224672,13.17648190,.00017069,87.9148,359.9439,80.6659,279.4666,0,U,49097,999,23754,-.11956964E-3,-.34E-6,0
ONEWEB-0312,2021-075Z,2026-07-16T22:53:35.915424,13.17647937,.00020466,87.9144,359.9516,83.3179,276.8185,0,U,49098,999,23752,-.13336493E-3,-.39E-6,0
ONEWEB-0313,2021-075AA,2026-07-16T23:00:40.213728,13.17649952,.00018174,87.9143,359.9554,89.5294,270.6045,0,U,49099,999,23751,-.4962817E-5,.11E-6,0
ONEWEB-0314,2021-075AB,2026-07-17T00:01:36.765408,13.17651098,.00020257,87.9158,359.9228,82.3496,277.7866,0,U,49100,999,23749,.24354528E-3,.107E-5,0
ONEWEB-0315,2021-075AC,2026-07-16T22:35:03.166368,13.12441959,.00015827,87.8974,344.7293,86.9666,273.1644,0,U,49101,999,23907,.10732739E-2,.399E-5,0
ONEWEB-0316,2021-075AD,2026-07-16T19:50:23.620992,13.18686101,.00019672,87.9195,329.5618,99.3251,260.8103,0,U,49102,999,24111,-.13451618E-3,-.4E-6,0
ONEWEB-0317,2021-075AE,2026-07-16T22:39:55.911168,13.12441770,.00024967,87.8969,344.7523,107.5943,252.5459,0,U,49103,999,23909,.97935533E-3,.365E-5,0
ONEWEB-0318,2021-075AF,2026-07-16T21:34:36.094368,13.18686506,.0001793,87.9197,329.5497,94.4923,265.6414,0,U,49104,999,24108,-.10164046E-3,-.27E-6,0
ONEWEB-0319,2021-075AG,2026-07-16T22:34:08.899392,13.17647888,.00014867,87.9146,359.9489,80.9932,279.1367,0,U,49105,999,23752,-.16186311E-3,-.5E-6,0
ONEWEB-0323,2021-075AH,2026-07-16T22:13:05.717568,13.12443485,.00016039,87.8973,344.7379,79.5710,280.5600,0,U,49106,999,23845,.69442128E-3,.263E-5,0
ONEWEB-0329,2021-075AJ,2026-07-16T22:46:17.028480,13.17648567,.00019188,87.9147,359.9479,87.9787,272.1564,0,U,49107,999,23750,-.37587405E-3,-.133E-5,0
ONEWEB-0330,2021-075AK,2026-07-16T22:51:20.303712,13.17646464,.00020124,87.9148,359.9586,89.5377,270.5985,0,U,49108,999,23754,-.62272646E-4,-.11E-6,0
ONEWEB-0292,2021-083A,2026-07-17T06:08:12.813504,13.13470249,.00018128,87.8980,314.2542,97.5046,262.6289,0,U,49186,999,23487,.13126886E-4,.18E-6,0
ONEWEB-0303,2021-083B,2026-07-16T21:29:44.049408,13.18684406,.00018013,87.9195,329.5487,94.6753,265.4585,0,U,49187,999,23389,-.10435704E-4,.9E-7,0
ONEWEB-0306,2021-083C,2026-07-17T08:10:45.236640,13.18684833,.00021158,87.9199,329.4494,101.1861,258.9509,0,U,49188,999,23399,.63421929E-4,.38E-6,0
ONEWEB-0307,2021-083D,2026-07-17T05:59:40.618752,13.13468418,.0001898,87.8981,314.2530,96.5419,263.5926,0,U,49189,999,23487,.53888339E-3,.21E-5,0
ONEWEB-0320,2021-083E,2026-07-16T21:44:17.558592,13.18687461,.00019393,87.9190,329.5505,99.3056,260.8295,0,U,49190,999,23389,-.64251365E-4,-.12E-6,0
ONEWEB-0321,2021-083F,2026-07-17T04:49:02.928576,13.20773295,.00021607,87.9183,268.4538,104.2098,255.9276,0,U,49191,999,24079,.93136465E-4,.51E-6,0
ONEWEB-0322,2021-083G,2026-07-16T20:45:07.321248,13.13469496,.00020815,87.8979,314.3293,112.5258,247.6092,0,U,49192,999,23481,.41547819E-3,.164E-5,0
ONEWEB-0324,2021-083H,2026-07-16T21:05:28.205088,13.18686453,.00020717,87.9200,329.5467,95.1805,264.9563,0,U,49193,999,23391,-.10761344E-4,.9E-7,0
ONEWEB-0325,2021-083J,2026-07-16T21:10:18.674112,13.18687284,.00018311,87.9189,329.5516,99.7635,260.3704,0,U,49194,999,23392,-.14646639E-4,.7E-7,0
ONEWEB-0326,2021-083K,2026-07-16T21:32:23.453088,13.18686320,.0001666,87.9198,329.5486,94.3569,265.7753,0,U,49195,999,23391,-.8776099E-4,-.22E-6,0
ONEWEB-0327,2021-083L,2026-07-16T21:31:59.300832,13.18685942,.00014952,87.9190,329.5506,96.0616,264.0687,0,U,49196,999,23393,-.27489639E-3,-.95E-6,0
ONEWEB-0328,2021-083M,2026-07-17T07:28:40.247616,13.13470308,.0002063,87.8989,314.2165,97.0829,263.0535,0,U,49197,999,23485,.99481258E-3,.376E-5,0
ONEWEB-0331,2021-083N,2026-07-16T21:22:27.761376,13.18684412,.00016896,87.9201,329.5439,90.3925,269.7401,0,U,49198,999,23392,.53928157E-4,.34E-6,0
ONEWEB-0333,2021-083P,2026-07-17T07:21:21.390912,13.13470210,.00018737,87.8984,314.2406,100.1459,259.9881,0,U,49199,999,23486,.92288189E-3,.35E-5,0
ONEWEB-0334,2021-083Q,2026-07-17T03:20:33.390240,13.20769995,.00025344,87.9185,268.4765,115.0899,245.0497,0,U,49200,999,24074,.25482556E-3,.117E-5,0
ONEWEB-0335,2021-083R,2026-07-17T07:14:02.458176,13.13469309,.00018206,87.8979,314.2393,95.7052,264.4285,0,U,49201,999,23487,.70635942E-3,.271E-5,0
