ONEWEB-0309             
1 49095U 21075W   26197.93193642  .00000005  00000+0 -20917-4 0  9992
2 49095  87.9147 359.9454 0002376  92.1743 267.9661 13.17650451237493
ONEWEB-0310             
1 49096U 21075X   26197.96810229 -.00000311  00000+0 -89989-3 0  9997
2 49096  87.8966 344.7574 0001873  97.1285 263.0056 13.12442638239098
ONEWEB-0311             
1 49097U 21075Y   26197.93869473 -.00000034  00000+0 -11957-3 0  9992
2 49097  87.9148 359.9439 0001706  80.6659 279.4666 13.17648190237549
ONEWEB-0312             
1 49098U 21075Z   26197.95388791 -.00000039  00000+0 -13336-3 0  9992
2 49098  87.9144 359.9516 0002046  83.3179 276.8185 13.17647937237520
ONEWEB-0313             
1 49099U 21075AA  26197.95879877  .00000011  00000+0 -49628-5 0  9997
2 49099  87.9143 359.9554 0001817  89.5294 270.6045 13.17649952237518
ONEWEB-0314             
1 49100U 21075AB  26198.00111997  .00000107  00000+0  24355-3 0  9992
2 49100  87.9158 359.9228 0002025  82.3496 277.7866 13.17651098237492
ONEWEB-0315             
1 49101U 21075AC  26197.94100887  .00000399  00000+0  10733-2 0  9998
2 49101  87.8974 344.7293 0001582  86.9666 273.1644 13.12441959239076
ONEWEB-0316             
1 49102U 21075AD  26197.82666228 -.00000040  00000+0 -13452-3 0  9999
2 49102  87.9195 329.5618 0001967  99.3251 260.8103 13.18686101241117
ONEWEB-0317             
1 49103U 21075AE  26197.94439712  .00000365  00000+0  97936-3 0  9996
2 49103  87.8969 344.7523 0002496 107.5943 252.5459 13.12441770239099
ONEWEB-0318             
1 49104U 21075AF  26197.89902887 -.00000027  00000+0 -10164-3 0  9994
2 49104  87.9197 329.5497 0001793  94.4923 265.6414 13.18686506241088
ONEWEB-0319             
1 49105U 21075AG  26197.94038078 -.00000050  00000+0 -16186-3 0  9999
2 49105  87.9146 359.9489 0001486  80.9932 279.1367 13.17647888237520
ONEWEB-0323             
1 49106U 21075AH  26197.92576062  .00000263  00000+0  69442-3 0  9995
2 49106  87.8973 344.7379 0001603  79.5710 280.5600 13.12443485238458
ONEWEB-0329             
1 49107U 21075AJ  26197.94880820 -.00000133  00000+0 -37587-3 0  9991
2 49107  87.9147 359.9479 0001918  87.9787 272.1564 13.17648567237502
ONEWEB-0330             
1 49108U 21075AK  26197.95231833 -.00000011  00000+0 -62273-4 0  9993
2 49108  87.9148 359.9586 0002012  89.5377 270.5985 13.17646464237549
ONEWEB-0292             
1 49186U 21083A   26198.25570386  .00000018  00000+0  13127-4 0  9990
2 49186  87.8980 314.2542 0001812  97.5046 262.6289 13.13470249234877
ONEWEB-0303             
1 49187U 21083B   26197.89564872  .00000009  00000+0 -10436-4 0  9994
2 49187  87.9195 329.5487 0001801  94.6753 265.4585 13.18684406233893
ONEWEB-0306             
1 49188U 21083C   26198.34080135  .00000038  00000+0  63422-4 0  9995
2 49188  87.9199 329.4494 0002115 101.1861 258.9509 13.18684833233996
ONEWEB-0307             
1 49189U 21083D   26198.24977568  .00000210  00000+0  53888-3 0  9996
2 49189  87.8981 314.2530 0001898  96.5419 263.5926 13.13468418234878
ONEWEB-0320             
1 49190U 21083E   26197.90575878 -.00000012  00000+0 -64251-4 0  9997
2 49190  87.9190 329.5505 0001939  99.3056 260.8295 13.18687461233894
ONEWEB-0321             
1 49191U 21083F   26198.20072834  .00000051  00000+0  93136-4 0  9991
2 49191  87.9183 268.4538 0002160 104.2098 255.9276 13.20773295240798
ONEWEB-0322             
1 49192U 21083G   26197.86466807  .00000164  00000+0  41548-3 0  9994
2 49192  87.8979 314.3293 0002081 112.5258 247.6092 13.13469496234819
ONEWEB-0324             
1 49193U 21083H   26197.87879867  .00000009  00000+0 -10761-4 0  9993
2 49193  87.9200 329.5467 0002071  95.1805 264.9563 13.18686453233916
ONEWEB-0325             
1 49194U 21083J   26197.88216058  .00000007  00000+0 -14647-4 0  9997
2 49194  87.9189 329.5516 0001831  99.7635 260.3704 13.18687284233923
ONEWEB-0326             
1 49195U 21083K   26197.89749367 -.00000022  00000+0 -87761-4 0  9998
2 49195  87.9198 329.5486 0001666  94.3569 265.7753 13.18686320233915
ONEWEB-0327             
1 49196U 21083L   26197.89721413 -.00000095  00000+0 -27490-3 0  9993
2 49196  87.9190 329.5506 0001495  96.0616 264.0687 13.18685942233932
ONEWEB-0328             
1 49197U 21083M   26198.31157694  .00000376  00000+0  99481-3 0  9995
2 49197  87.8989 314.2165 0002063  97.0829 263.0535 13.13470308234855
ONEWEB-0331             
1 49198U 21083N   26197.89059909  .00000034  00000+0  53928-4 0  9996
2 49198  87.9201 329.5439 0001689  90.3925 269.7401 13.18684412233923
ONEWEB-0333             
1 49199U 21083P   26198.30649758  .00000350  00000+0  92288-3 0  9993
2 49199  87.8984 314.2406 0001873 100.1459 259.9881 13.13470210234864
ONEWEB-0334             
1 49200U 21083Q   26198.13927535  .00000117  00000+0  25483-3 0  9993
2 49200  87.9185 268.4765 0002534 115.0899 245.0497 13.20769995240749
ONEWEB-0335             
1 49201U 21083R   26198.30141734  .00000271  00000+0  70636-3 0  9993
2 49201  87.8979 314.2393 0001820  95.7052 264.4285 13.13469309234874
